[{"OBJECT_NAME":"STARLINK-34440","OBJECT_ID":"2025-137W","EPOCH":"2026-03-09T22:48:13.852512","MEAN_MOTION":15.30201069,"ECCENTRICITY":0.00010555,"INCLINATION":53.1582,"RA_OF_ASC_NODE":334.1038,"ARG_OF_PERICENTER":105.8215,"MEAN_ANOMALY":254.2902,"EPHEMERIS_TYPE":0,"CLASSIFICATION_TYPE":"U","NORAD_CAT_ID":64614,"ELEMENT_SET_NO":999,"REV_AT_EPOCH":4077,"BSTAR":0.00064388487,"MEAN_MOTION_DOT":0.0001876,"MEAN_MOTION_DDOT":0},{"OBJECT_NAME":"COSMOS 2535 DEB","OBJECT_ID":"2019-039M","EPOCH":"2026-03-08T03:25:35.903424","MEAN_MOTION":15.28322551,"ECCENTRICITY":0.0014917,"INCLINATION":97.5619,"RA_OF_ASC_NODE":139.2722,"ARG_OF_PERICENTER":329.0964,"MEAN_ANOMALY":30.9396,"EPHEMERIS_TYPE":0,"CLASSIFICATION_TYPE":"U","NORAD_CAT_ID":44641,"ELEMENT_SET_NO":999,"REV_AT_EPOCH":35167,"BSTAR":0.0011539757,"MEAN_MOTION_DOT":0.0003196,"MEAN_MOTION_DDOT":0}]
